OBJECT_NAME,OBJECT_ID,EPOCH,MEAN_MOTION,ECCENTRICITY,INCLINATION,RA_OF_ASC_NODE,ARG_OF_PERICENTER,MEAN_ANOMALY,EPHEMERIS_TYPE,CLASSIFICATION_TYPE,NORAD_CAT_ID,ELEMENT_SET_NO,REV_AT_EPOCH,BSTAR,MEAN_MOTION_DOT,MEAN_MOTION_DDOT
CHUANGXIN 1-02 (CX-1-02),2008-056B,2026-07-04T15:33:25.460640,14.30156727,.00155319,98.6124,211.7405,88.9315,271.3647,0,U,33434,999,92111,.18559822E-4,.4E-7,0
STARS (KUKAI),2009-002G,2026-07-03T19:24:52.319232,14.95867721,.00102919,98.1560,132.7971,111.0617,249.1704,0,U,33498,999,94096,.48681441E-3,.5386E-4,0
KKS-1 (KISEKI),2009-002H,2026-07-04T06:11:18.235680,14.83168983,.00066355,98.1181,107.9705,228.4343,131.6302,0,U,33499,999,93872,.20292668E-3,.16E-4,0
UK-DMC 2,2009-041C,2026-07-04T15:32:33.879840,14.76081029,.00013067,97.8863,320.1893,99.3472,260.7886,0,U,35683,999,90914,.73328547E-4,.456E-5,0
OCEANSAT-2,2009-051A,2026-07-04T13:41:43.530144,13.99658576,.00166097,98.2318,170.6869,184.4014,175.7010,0,U,35931,999,88176,-.11132113E-3,-.2E-5,0
SWISSCUBE,2009-051B,2026-07-04T11:28:26.837760,14.62517748,.00072179,98.4021,93.6669,148.5860,211.5774,0,U,35932,999,89168,.31098137E-3,.1528E-4,0
BEESAT-1,2009-051C,2026-07-04T00:25:02.099424,14.61748287,.00053974,98.3948,92.7981,160.6033,199.5374,0,U,35933,999,89164,.21141658E-3,.1005E-4,0
ITUPSAT1,2009-051E,2026-07-04T00:33:09.275328,14.60466234,.00072743,98.4031,91.9778,176.2481,183.8774,0,U,35935,999,89119,.19967095E-3,.919E-5,0
DMSP 5D-3 F18 (USA 210),2009-057A,2026-07-04T09:29:50.715168,14.14906679,.00105757,98.9047,166.1280,196.4615,163.6216,0,U,35951,999,86202,.17165754E-3,.287E-5,0
PROBA-2,2009-059B,2026-07-04T12:04:28.653888,14.54870665,.00123195,98.2455,8.6161,223.2526,136.7704,0,U,36037,999,88404,.82020314E-4,.307E-5,0
YAOGAN-7,2009-069A,2026-07-04T10:04:25.391712,14.78027757,.00242897,98.0049,71.1787,347.1078,12.9509,0,U,36110,999,89217,.89957282E-4,.599E-5,0
XIWANG-1 (HOPE-1),2009-072B,2026-07-04T13:43:13.281600,13.16437625,.00072543,100.4037,139.1270,189.3062,170.7917,0,U,36122,999,79529,-.13270321E-2,-.551E-5,0
COSMOS 2463,2010-017A,2026-07-04T13:44:35.566368,13.71666780,.00375845,82.9591,236.9328,82.3512,85.4573,0,U,36519,999,81031,.40907749E-4,.53E-6,0
CARTOSAT-2B,2010-035A,2026-07-04T14:17:39.758784,14.78608127,.00121914,97.9940,236.0340,129.6349,230.5939,0,U,36795,999,86242,.14087936E-3,.98E-5,0
TISAT 1,2010-035E,2026-07-04T07:04:38.693856,15.32381693,.00036347,98.0712,133.3699,140.6786,219.4718,0,U,36799,999,87032,.96086611E-3,.30047E-3,0
YAOGAN-10,2010-038A,2026-07-04T16:10:26.534208,14.85400542,.00016519,97.8966,208.9388,82.6293,32.6101,0,U,36834,999,85980,.47831527E-4,.358E-5,0
SHIJIAN-6 04B (SJ-6 04B),2010-051B,2026-07-04T13:47:50.646336,14.99370438,.00068688,97.8727,191.1688,249.6439,110.4045,0,U,37180,999,85828,.13825849E-3,.163E-4,0
FENGYUN 3B,2010-059A,2026-07-04T15:34:20.762688,14.14846629,.00228074,98.9605,231.7369,135.2620,22.7232,0,U,37214,999,80989,.28885217E-3,.514E-5,0
COSMO-SKYMED 4,2010-060A,2026-07-04T14:11:38.713920,14.82158318,.00014469,97.8887,8.9384,85.9073,274.2305,0,U,37216,999,84714,.36835779E-4,.241E-5,0
O/OREOS (USA 219),2010-062C,2026-07-04T14:35:18.137184,14.93823053,.0013324,71.9706,40.8762,26.2334,333.9509,0,U,37224,999,11924,.35172716E-3,.368E-4,0
RESOURCESAT-2,2011-015A,2026-07-04T14:44:39.148800,14.21604472,.00109653,98.7637,252.9352,201.4934,158.5784,0,U,37387,999,78865,.86074526E-4,.145E-5,0
YOUTHSAT,2011-015B,2026-07-04T04:49:56.328096,14.25637242,.00133325,98.3693,158.4890,294.5669,76.1928,0,U,37388,999,79006,.10534841E-3,.208E-5,0
APRIZESAT 6,2011-044F,2026-07-04T00:12:27.163872,14.76943409,.00439113,98.2349,95.8509,33.6747,347.0397,0,U,37793,999,79963,.14683996E-3,.993E-5,0
JUGNU,2011-058B,2026-07-04T09:21:20.530944,14.13781047,.00183429,19.9588,203.9154,266.3518,222.4856,0,U,37839,999,76146,.73417432E-4,.408E-5,0
SRMSAT,2011-058D,2026-07-04T14:50:55.131360,14.11579515,.00118484,19.9730,313.9643,35.9930,68.0324,0,U,37841,999,76028,.85946856E-4,.423E-5,0
